{"fetched_at":"2026-04-08T13:20:28Z","count":8910,"tles":[{"name":"STARLINK-31783","line1":"1 59750U 24090W   26098.09915964  .00002324  00000+0  93950-4 0  9999","line2":"2 59750  43.0046  17.7732 0001385 282.2598  77.8098 15.27577887107920","category":"Starlink"},{"name":"SDA_1679","line1":"1 65989U 25230R   26097.99590556 -.00016022  00000+0 -14187-1 0  9995","line2":"2 65989  81.2997 276.7024 0003797  45.3782 314.7684 13.85139796 24100","category":"Other"},{"name":"STARLINK-32932","line1":"1 63083U 25037G   26097.94717890  .00001778  00000+0  15676-3 0  9996","line2":"2 63083  70.0008 280.7210 0002422 271.6092  88.4789 14.98334666 62848","category":"Starlink"},{"name":"UNKNOWN","line1":"1 81745U          26096.83614686  .00002088  00000+0  66470-3 0  9993","line2":"2 81745  70.9984 135.4604 0004070 358.1990   1.9131 14.41006445646328","category":"Other"},{"name":"STARLINK-30265","line1":"1 57646U 23122Q   26097.80265370 -.00000817  00000+0 -20142-4 0  9993","line2":"2 57646  43.0019 287.7211 0001723 271.3391  88.7263 15.27586881146662","category":"Starlink"},{"name":"STARLINK-34032","line1":"1 63853U 25093T   26097.84934786  .00037530  00000+0  13670-2 0  9993","line2":"2 63853  43.0040 273.0401 0001830 274.9949  85.0694 15.27566133 52436","category":"Starlink"},{"name":"IRIDE FM1","line1":"1 66695U 25276AF  26097.92435446  .00005767  00000+0  26985-3 0  9992","line2":"2 66695  97.4221 172.8344 0001355 127.5027 232.6331 15.20133721 19764","category":"Other"},{"name":"STARLINK-31156","line1":"1 58743U 24005R   26098.16120020  .00001310  00000+0  58499-4 0  9998","line2":"2 58743  43.0017  53.0894 0001173 272.0626  88.0091 15.26745214125001","category":"Starlink"},{"name":"STARLINK-34529","line1":"1 64936U 25158E   26098.13147043  .00003380  00000+0  23832-3 0  9991","line2":"2 64936  97.6024 323.0674 0002333  84.5408 275.6085 15.05655223 39787","category":"Starlink"},{"name":"STARLINK-32510","line1":"1 62040U 24216J   26098.01610828  .00023306  00000+0  85348-3 0  9992","line2":"2 62040  42.9946  98.2315 0000868 295.9519  64.1243 15.27590915 78276","category":"Starlink"},{"name":"2026-027E","line1":"1 67750U 26027E   26098.15434519  .00008140  00000+0  39489-3 0  9997","line2":"2 67750  97.4967 226.9208 0011117 109.1290 251.1149 15.18702610  8339","category":"Other"},{"name":"STARLINK-31947","line1":"1 59835U 24097A   26098.07618263 -.00001521  00000+0 -45765-4 0  9991","line2":"2 59835  43.0018 108.1847 0001004 258.7442 101.3297 15.27569218106415","category":"Starlink"},{"name":"2025-234A","line1":"1 66053U 25234A   25322.49246372  .00033076  00000+0  13744-2 0  9996","line2":"2 66053  97.4602  27.9398 0014748 179.4356 180.6900 15.23636346  4622","category":"Other"},{"name":"STARLINK-32936","line1":"1 63147U 25043R   26098.05102204  .00022979  00000+0  84233-3 0  9995","line2":"2 63147  42.9967 217.2718 0000846  54.4823 305.6107 15.27565063 61775","category":"Starlink"},{"name":"UNKNOWN","line1":"1 82464U          23350.08096361  .00012835  00000+0  25433-2 0  9997","line2":"2 82464  70.9915 234.4584 0059132 143.9186 286.8459 14.61254717528879","category":"Other"},{"name":"YAOGAN-39 01C","line1":"1 57731U 23130E   26097.82939767  .00006736  00000+0  32700-3 0  9993","line2":"2 57731  34.9922 230.4137 0000591  67.0747 293.0029 15.17796524144775","category":"Other"},{"name":"STARLINK-34075","line1":"1 63917U 25095AD  26098.13587644  .00018043  00000+0  66327-3 0  9992","line2":"2 63917  43.0045   9.7087 0002258  20.5493 339.5449 15.27596272 52285","category":"Starlink"},{"name":"CZ-6A DEB","line1":"1 60633U 24140AJ  24249.28229442  .00001886  00000+0  93175-3 0  9993","line2":"2 60633  89.0425 347.9825 0060031 123.8176 236.8747 14.16081538  3999","category":"Other"},{"name":"TRANSPORTER-15 OBJECT CX","line1":"1 66759U 25276CX  26098.19068796  .00006447  00000+0  30134-3 0  9990","line2":"2 66759  97.4197 173.0507 0002151 135.1362 225.0048 15.20126526 19804","category":"Other"},{"name":"HULIANWANG DIGUI-48","line1":"1 65051U 25162J   26098.18247293 -.00000084  00000+0  85553-4 0  9996","line2":"2 65051  50.0025 156.5386 0000894 205.8843 154.1984 13.29335282 34058","category":"Other"},{"name":"STARLINK-33555","line1":"1 62104U 24220S   26098.20541774  .00029792  00000+0  10874-2 0  9998","line2":"2 62104  43.0009  38.9904 0000850 230.4821 129.5955 15.27592760 77674","category":"Starlink"},{"name":"STARLINK-36353","line1":"1 67820U 26032Z   26098.07823054  .00127496  00000+0  84217-3 0  9993","line2":"2 67820  97.2846 286.0697 0002094  77.0371 283.1128 15.75210544  9412","category":"Starlink"},{"name":"DELTA 2 R/B(2)","line1":"1 26115U 00017C   26096.54026435  .00000122  00000+0  10114-1 0  9997","line2":"2 26115  94.1190 314.5760 7509199 298.8160   6.9530  1.68221875159896","category":"Other"},{"name":"PALISADE","line1":"1 44634U 19069A   26097.80688240 -.00000388  00000+0 -11215-2 0  9998","line2":"2 44634  87.8827 293.8032 0007637 252.6751 107.3542 13.11904901309880","category":"Other"},{"name":"STARLINK-5665","line1":"1 55361U 23013AG  26097.78075841 -.00000411  00000+0 -54054-5 0  9993","line2":"2 55361  43.0034 124.3004 0001348 264.7889  95.2809 15.27579548176291","category":"Starlink"},{"name":"STARLINK-31676","line1":"1 59900U 24100R   26098.03329871  .00001711  00000+0  71675-4 0  9997","line2":"2 59900  43.0021 319.7636 0001021 272.7430  87.3305 15.27580717105532","category":"Starlink"},{"name":"STARLINK-35572","line1":"1 66117U 25237D   26098.17505852  .00024739  00000+0  84518-3 0  9991","line2":"2 66117  53.1593 262.7589 0000876  77.3447 282.7652 15.30178291 27122","category":"Starlink"},{"name":"STARLINK-3249","line1":"1 49730U 21115G   26098.20626667 -.00000397  00000+0 -68374-5 0  9996","line2":"2 49730  53.2176  26.8058 0001376  97.9480 262.1669 15.08837296239849","category":"Starlink"},{"name":"UNKNOWN","line1":"1 84588U          23361.25659683  .00025522  00000+0  61503-2 0  9994","line2":"2 84588   2.3185  87.7702 6971955 193.4449 127.4348  2.67805768 88768","category":"Other"},{"name":"FENGYUN 1C DEB","line1":"1 30622U 99025AND 26097.60393620  .00006601  00000+0  23525-2 0  9992","line2":"2 30622 100.9905 144.8999 0070362  63.7730  88.2669 14.33296762704561","category":"Weather"},{"name":"STARLINK-1942","line1":"1 46794U 20074BH  26098.00002315  .00144803  00000+0  22584-2 0  9991","line2":"2 46794  53.0430 153.5718 0005802  41.5922 304.2410 15.52856092  5827","category":"Starlink"},{"name":"STARLINK-30151","line1":"1 56827U 23079E   26097.88808420 -.00003254  00000+0 -10877-3 0  9992","line2":"2 56827  43.0013 302.1610 0000494 285.0405  75.0392 15.27584627157359","category":"Starlink"},{"name":"FENGYUN 1C DEB","line1":"1 37701U 99025ELS 23152.07684323  .00004840  00000+0  31928-2 0  9999","line2":"2 37701  97.6518  95.0748 0300252 301.9956 115.2966 13.82366021632052","category":"Weather"},{"name":"STARLINK-3990","line1":"1 52626U 22052AE  26097.81707429 -.00001393  00000+0 -69464-4 0  9994","line2":"2 52626  53.2153 138.3637 0000878 112.1100 247.9986 15.08832647215380","category":"Starlink"},{"name":"CERES-1 R/B","line1":"1 57796U 23135E   23266.70606559  .05954002  11727-4  48491-3 0  9991","line2":"2 57796  49.8915   8.7679 0161802  67.5960  87.0815 16.08650695  2850","category":"Other"},{"name":"CZ-6A DEB","line1":"1 60697U 24140DA  24249.23460603  .00002141  00000+0  10781-2 0  9990","line2":"2 60697  89.0513 348.0336 0064437 132.2974 228.3700 14.14987062  3620","category":"Other"},{"name":"STARLINK-35898","line1":"1 66826U 25280F   26098.15556096  .00001908  00000+0  16766-3 0  9993","line2":"2 66826  70.0046 259.9929 0002117 276.5819  83.5099 14.98334860 20496","category":"Starlink"},{"name":"STARLINK-4647","line1":"1 53608U 22104W   26098.17544436 -.00000142  00000+0  91942-5 0  9997","line2":"2 53608  53.2168 101.9461 0001495 104.2976 255.8182 15.08836167200085","category":"Starlink"},{"name":"STARLINK-4699","line1":"1 53716U 22107S   26097.80555212  .00001161  00000+0  91056-4 0  9999","line2":"2 53716  53.2161 123.0916 0001503  75.9785 284.1374 15.08830254198805","category":"Starlink"},{"name":"COSMOS 2251 DEB","line1":"1 35902U 93036AUR 26086.20610585  .00002055  00000+0  80153-3 0  9990","line2":"2 35902  73.9826  44.8684 0101394 138.4840 222.4067 14.27507438626206","category":"Other"},{"name":"ONEWEB-0172","line1":"1 48071U 21025AF  26098.14309883 -.00000237  00000+0 -68330-3 0  9997","line2":"2 48071  87.8995 334.1666 0001850  77.6278 282.5058 13.13469481245313","category":"Other"},{"name":"FENGYUN 1C DEB","line1":"1 31360U 99025BRQ 26080.37341544  .00005074  00000+0  25616-2 0  9992","line2":"2 31360  98.0009 293.1672 0102004 303.9224  55.2284 14.13946483645926","category":"Weather"},{"name":"STARLINK-2131","line1":"1 47728U 21017G   26098.19562223  .00027323  00000+0  67651-3 0  9998","line2":"2 47728  53.0750  66.0468 0001430  99.7189 260.3977 15.40246795282415","category":"Starlink"},{"name":"STARLINK-5760","line1":"1 55591U 23020Y   26097.98686122  .00000906  00000+0  43454-4 0  9996","line2":"2 55591  43.0013 199.7229 0001161 270.5828  89.4890 15.26742998173392","category":"Starlink"},{"name":"FENGYUN 1C DEB","line1":"1 39540U 99025EWH 26089.07522420  .00002459  00000+0  30740-2 0  9998","line2":"2 39540 106.1836  24.7043 0399783 116.6854 267.3916 13.37340307705331","category":"Weather"},{"name":"TIANHUI 4B","line1":"1 50573U 21134B   26098.19179301  .00007526  00000+0  15551-3 0  9996","line2":"2 50573  88.9748 332.6705 0008303  14.1574 345.9916 15.45632576239025","category":"Other"},{"name":"AYRIS-2","line1":"1 56986U 23084BG  23362.47162002  .00016497  00000+0  80490-3 0  9999","line2":"2 56986  97.5261 117.1065 0014252 241.5316 118.4483 15.18283154 30081","category":"Other"},{"name":"STARLINK-4206","line1":"1 52847U 22062T   26098.19013733  .00000543  00000+0  52204-4 0  9998","line2":"2 52847  53.2168 261.6886 0001246  91.8676 268.2459 15.08841631210242","category":"Starlink"}]}